[{"OBJECT_NAME":"STARLINK-5500","OBJECT_ID":"2023-021G","EPOCH":"2026-03-09T17:27:52.068672","MEAN_MOTION":14.98333103,"ECCENTRICITY":0.00021815,"INCLINATION":70.0005,"RA_OF_ASC_NODE":204.3682,"ARG_OF_PERICENTER":274.385,"MEAN_ANOMALY":85.706,"EPHEMERIS_TYPE":0,"CLASSIFICATION_TYPE":"U","NORAD_CAT_ID":55634,"ELEMENT_SET_NO":999,"REV_AT_EPOCH":16829,"BSTAR":3.8882112e-5,"MEAN_MOTION_DOT":3.71e-6,"MEAN_MOTION_DDOT":0},{"OBJECT_NAME":"COSMOS 397 DEB","OBJECT_ID":"1971-015CK","EPOCH":"2026-03-09T09:36:23.028192","MEAN_MOTION":14.47470727,"ECCENTRICITY":0.03251303,"INCLINATION":65.6615,"RA_OF_ASC_NODE":77.0514,"ARG_OF_PERICENTER":356.2788,"MEAN_ANOMALY":3.5893,"EPHEMERIS_TYPE":0,"CLASSIFICATION_TYPE":"U","NORAD_CAT_ID":6843,"ELEMENT_SET_NO":999,"REV_AT_EPOCH":71464,"BSTAR":0.0026363984,"MEAN_MOTION_DOT":0.00018912,"MEAN_MOTION_DDOT":0}]
